[
    {
        "Altitude(m)": 605470.7892773569,
        "Argument of Periapsis(deg)": 0.0,
        "Eccentricity": 0.0,
        "Inclination(deg)": 60.0,
        "Latitude(deg)": 27.988203806585833,
        "Longitude(deg)": 142.2629809778499,
        "Mean Anomaly(deg)": 147.2727,
        "RAAN(deg)": 80.0,
        "Satellite Name": "Test1 361",
        "Satellite Number": 361,
        "Semi-Major Axis(m)": 6980739.136638005,
        "Time(s)": 0
    },
    {
        "Altitude(m)": 605395.8270487787,
        "Argument of Periapsis(deg)": 0.00010418945913296404,
        "Eccentricity": 0.0,
        "Inclination(deg)": 60.0,
        "Latitude(deg)": 27.47389410558011,
        "Longitude(deg)": 142.61616801657706,
        "Mean Anomaly(deg)": 147.8928061454618,
        "RAAN(deg)": 79.99957995086025,
        "Satellite Name": "Test1 361",
        "Satellite Number": 361,
        "Semi-Major Axis(m)": 6980739.136638005,
        "Time(s)": 10
    }
]